[{"OBJECT_NAME":"STARLINK-35599","OBJECT_ID":"2025-236S","EPOCH":"2026-03-09T12:04:05.315520","MEAN_MOTION":15.30135876,"ECCENTRICITY":0.00012844,"INCLINATION":53.1587,"RA_OF_ASC_NODE":104.9039,"ARG_OF_PERICENTER":63.9084,"MEAN_ANOMALY":296.2049,"EPHEMERIS_TYPE":0,"CLASSIFICATION_TYPE":"U","NORAD_CAT_ID":66102,"ELEMENT_SET_NO":999,"REV_AT_EPOCH":2285,"BSTAR":0.00053310275,"MEAN_MOTION_DOT":0.00015432,"MEAN_MOTION_DDOT":0},{"OBJECT_NAME":"KUIPER-00223","OBJECT_ID":"2026-030V","EPOCH":"2026-03-09T17:18:46.022400","MEAN_MOTION":15.34146211,"ECCENTRICITY":0.00128242,"INCLINATION":51.8827,"RA_OF_ASC_NODE":219.2782,"ARG_OF_PERICENTER":59.0052,"MEAN_ANOMALY":301.2192,"EPHEMERIS_TYPE":0,"CLASSIFICATION_TYPE":"U","NORAD_CAT_ID":67783,"ELEMENT_SET_NO":999,"REV_AT_EPOCH":509,"BSTAR":0.00090645373,"MEAN_MOTION_DOT":0.00030225,"MEAN_MOTION_DDOT":0}]
