STARLINK-35599          
1 66102U 25236S   26068.50283930  .00015432  00000+0  53310-3 0  9994
2 66102  53.1587 104.9039 0001284  63.9084 296.2049 15.30135876 22855
KUIPER-00223            
1 67783U 26030V   26068.72136600  .00030225  00000+0  90645-3 0  9997
2 67783  51.8827 219.2782 0012824  59.0052 301.2192 15.34146210  5092
